{
  "type": "FeatureCollection",
  "features": [
    {
      "type": "Feature",
      "properties": {
        "norad_id": 58647,
        "name": "TIANMU-1 13",
        "group": "weather",
        "lat": -75.57944203610124,
        "lon": 148.04036896922412,
        "alt_km": 497.09505472987894,
        "timestamp": "2025-12-04T10:51:49.749892+00:00",
        "meta_object_name": "TIANMU-1 13",
        "meta_object_id": "2023-205C",
        "meta_epoch": "2025-12-04T00:17:02.912928",
        "meta_mean_motion": 15.2435193,
        "meta_eccentricity": 0.00063622,
        "meta_inclination": 97.3624,
        "meta_ra_of_asc_node": 357.7956,
        "meta_arg_of_pericenter": 306.7238,
        "meta_mean_anomaly": 53.3415,
        "meta_ephemeris_type": 0,
        "meta_classification_type": "U",
        "meta_norad_cat_id": 58647,
        "meta_element_set_no": 999,
        "meta_rev_at_epoch": 10774,
        "meta_bstar": 0.00050630774,
        "meta_mean_motion_dot": 0.00012338,
        "meta_mean_motion_ddot": 0,
        "tle_line1": "1 58647U 23205C   25338.01183927  .00012338  00000+0  50631-3 0  9998",
        "tle_line2": "2 58647  97.3624 357.7956 0006362 306.7238  53.3415 15.24351930107744"
      },
      "geometry": {
        "type": "Point",
        "coordinates": [
          148.04036896922412,
          -75.57944203610124
        ]
      }
    },
    {
      "type": "Feature",
      "properties": {
        "norad_id": 58648,
        "name": "TIANMU-1 14",
        "group": "weather",
        "lat": -10.859013352200147,
        "lon": -0.994986153404713,
        "alt_km": 493.2962947058768,
        "timestamp": "2025-12-04T10:51:49.749905+00:00",
        "meta_object_name": "TIANMU-1 14",
        "meta_object_id": "2023-205D",
        "meta_epoch": "2025-12-03T23:53:00.476160",
        "meta_mean_motion": 15.24336229,
        "meta_eccentricity": 0.00072616,
        "meta_inclination": 97.3557,
        "meta_ra_of_asc_node": 357.136,
        "meta_arg_of_pericenter": 311.1361,
        "meta_mean_anomaly": 48.9249,
        "meta_ephemeris_type": 0,
        "meta_classification_type": "U",
        "meta_norad_cat_id": 58648,
        "meta_element_set_no": 999,
        "meta_rev_at_epoch": 10774,
        "meta_bstar": 0.00049057188,
        "meta_mean_motion_dot": 0.00011948,
        "meta_mean_motion_ddot": 0,
        "tle_line1": "1 58648U 23205D   25337.99514440  .00011948  00000+0  49057-3 0  9999",
        "tle_line2": "2 58648  97.3557 357.1360 0007261 311.1361  48.9249 15.24336229107748"
      },
      "geometry": {
        "type": "Point",
        "coordinates": [
          -0.994986153404713,
          -10.859013352200147
        ]
      }
    },
    {
      "type": "Feature",
      "properties": {
        "norad_id": 58660,
        "name": "TIANMU-1 19",
        "group": "weather",
        "lat": 34.063157160068315,
        "lon": -85.42369640003213,
        "alt_km": 483.1540299172484,
        "timestamp": "2025-12-04T10:51:49.749915+00:00",
        "meta_object_name": "TIANMU-1 19",
        "meta_object_id": "2023-208A",
        "meta_epoch": "2025-12-03T23:13:26.152320",
        "meta_mean_motion": 15.2759571,
        "meta_eccentricity": 0.00040772,
        "meta_inclination": 97.4394,
        "meta_ra_of_asc_node": 89.024,
        "meta_arg_of_pericenter": 292.3697,
        "meta_mean_anomaly": 67.711,
        "meta_ephemeris_type": 0,
        "meta_classification_type": "U",
        "meta_norad_cat_id": 58660,
        "meta_element_set_no": 999,
        "meta_rev_at_epoch": 10748,
        "meta_bstar": 0.00063257974,
        "meta_mean_motion_dot": 0.00017019,
        "meta_mean_motion_ddot": 0,
        "tle_line1": "1 58660U 23208A   25337.96766380  .00017019  00000+0  63258-3 0  9999",
        "tle_line2": "2 58660  97.4394  89.0240 0004077 292.3697  67.7110 15.27595710107486"
      },
      "geometry": {
        "type": "Point",
        "coordinates": [
          -85.42369640003213,
          34.063157160068315
        ]
      }
    },
    {
      "type": "Feature",
      "properties": {
        "norad_id": 58661,
        "name": "TIANMU-1 20",
        "group": "weather",
        "lat": -4.313606990389725,
        "lon": -90.61700345176676,
        "alt_km": 485.02672579985483,
        "timestamp": "2025-12-04T10:51:49.749925+00:00",
        "meta_object_name": "TIANMU-1 20",
        "meta_object_id": "2023-208B",
        "meta_epoch": "2025-12-03T23:03:49.713984",
        "meta_mean_motion": 15.28787695,
        "meta_eccentricity": 0.00064566,
        "meta_inclination": 97.4331,
        "meta_ra_of_asc_node": 89.4563,
        "meta_arg_of_pericenter": 302.7771,
        "meta_mean_anomaly": 57.2846,
        "meta_ephemeris_type": 0,
        "meta_classification_type": "U",
        "meta_norad_cat_id": 58661,
        "meta_element_set_no": 999,
        "meta_rev_at_epoch": 10755,
        "meta_bstar": 0.00060069028,
        "meta_mean_motion_dot": 0.00016761,
        "meta_mean_motion_ddot": 0,
        "tle_line1": "1 58661U 23208B   25337.96099206  .00016761  00000+0  60069-3 0  9996",
        "tle_line2": "2 58661  97.4331  89.4563 0006456 302.7771  57.2846 15.28787695107556"
      },
      "geometry": {
        "type": "Point",
        "coordinates": [
          -90.61700345176676,
          -4.313606990389725
        ]
      }
    },
    {
      "type": "Feature",
      "properties": {
        "norad_id": 58662,
        "name": "TIANMU-1 21",
        "group": "weather",
        "lat": 64.11826404778536,
        "lon": -72.56047787073948,
        "alt_km": 469.8721597814092,
        "timestamp": "2025-12-04T10:51:49.749935+00:00",
        "meta_object_name": "TIANMU-1 21",
        "meta_object_id": "2023-208C",
        "meta_epoch": "2025-12-03T23:23:07.882656",
        "meta_mean_motion": 15.31256121,
        "meta_eccentricity": 0.00059665,
        "meta_inclination": 97.438,
        "meta_ra_of_asc_node": 91.3391,
        "meta_arg_of_pericenter": 297.0599,
        "meta_mean_anomaly": 63.0033,
        "meta_ephemeris_type": 0,
        "meta_classification_type": "U",
        "meta_norad_cat_id": 58662,
        "meta_element_set_no": 999,
        "meta_rev_at_epoch": 10765,
        "meta_bstar": 0.00066310728,
        "meta_mean_motion_dot": 0.00019981,
        "meta_mean_motion_ddot": 0,
        "tle_line1": "1 58662U 23208C   25337.97439679  .00019981  00000+0  66311-3 0  9993",
        "tle_line2": "2 58662  97.4380  91.3391 0005966 297.0599  63.0033 15.31256121107654"
      },
      "geometry": {
        "type": "Point",
        "coordinates": [
          -72.56047787073948,
          64.11826404778536
        ]
      }
    },
    {
      "type": "Feature",
      "properties": {
        "norad_id": 58663,
        "name": "TIANMU-1 22",
        "group": "weather",
        "lat": 25.848258241086683,
        "lon": -86.80028529740463,
        "alt_km": 484.9331397598089,
        "timestamp": "2025-12-04T10:51:49.749945+00:00",
        "meta_object_name": "TIANMU-1 22",
        "meta_object_id": "2023-208D",
        "meta_epoch": "2025-12-03T23:11:10.158720",
        "meta_mean_motion": 15.27367861,
        "meta_eccentricity": 0.00030293,
        "meta_inclination": 97.4388,
        "meta_ra_of_asc_node": 89.0854,
        "meta_arg_of_pericenter": 328.7171,
        "meta_mean_anomaly": 31.3888,
        "meta_ephemeris_type": 0,
        "meta_classification_type": "U",
        "meta_norad_cat_id": 58663,
        "meta_element_set_no": 999,
        "meta_rev_at_epoch": 10749,
        "meta_bstar": 0.00059177511,
        "meta_mean_motion_dot": 0.00015803,
        "meta_mean_motion_ddot": 0,
        "tle_line1": "1 58663U 23208D   25337.96608980  .00015803  00000+0  59178-3 0  9998",
        "tle_line2": "2 58663  97.4388  89.0854 0003029 328.7171  31.3888 15.27367861107494"
      },
      "geometry": {
        "type": "Point",
        "coordinates": [
          -86.80028529740463,
          25.848258241086683
        ]
      }
    },
    {
      "type": "Feature",
      "properties": {
        "norad_id": 58700,
        "name": "TIANMU-1 15",
        "group": "weather",
        "lat": 9.482117543812945,
        "lon": 158.69764709257518,
        "alt_km": 490.9156235062601,
        "timestamp": "2025-12-04T10:51:49.749955+00:00",
        "meta_object_name": "TIANMU-1 15",
        "meta_object_id": "2024-004A",
        "meta_epoch": "2025-12-04T04:31:15.128256",
        "meta_mean_motion": 15.24501037,
        "meta_eccentricity": 0.000574,
        "meta_inclination": 97.4624,
        "meta_ra_of_asc_node": 159.6889,
        "meta_arg_of_pericenter": 332.871,
        "meta_mean_anomaly": 27.2227,
        "meta_ephemeris_type": 0,
        "meta_classification_type": "U",
        "meta_norad_cat_id": 58700,
        "meta_element_set_no": 999,
        "meta_rev_at_epoch": 10604,
        "meta_bstar": 0.00061721,
        "meta_mean_motion_dot": 0.00015126,
        "meta_mean_motion_ddot": 0,
        "tle_line1": "1 58700U 24004A   25338.18836954  .00015126  00000+0  61721-3 0  9999",
        "tle_line2": "2 58700  97.4624 159.6889 0005740 332.8710  27.2227 15.24501037106041"
      },
      "geometry": {
        "type": "Point",
        "coordinates": [
          158.69764709257518,
          9.482117543812945
        ]
      }
    }
  ]
}